norad_id,name,regime,epoch,line1,line2,inclination,eccentricity,mean_motion,raan,arg_pericenter,mean_anomaly
19789,COSMOS 1998,LEO,21350.90922894,1 19789U 89009E   21350.90922894 -.00000004  00000-0 -79451-4 0    14\,2 19789  82.6107 300.3903 0017404  65.9343 294.3568 12.64871417516262,82.6107,0.0017404,12.64871417,300.3903,65.9343,294.3568
19789,COSMOS 1998,LEO,21351.22562467,1 19789U 89009E   21351.22562467  .00000000  00000-0 -57561-4 0  7397\,2 19789  82.6107 300.1884 0017398  65.2589 295.0312 12.64871421516489,82.6107,0.0017398,12.64871421,300.1884,65.2589,295.0312
19789,COSMOS 1998,LEO,21351.85841612,1 19789U 89009E   21351.85841612  .00000001  00000-0 -52589-4 0    16\,2 19789  82.6108 299.7844 0017388  63.8925 296.3955 12.64871433516385,82.6108,0.0017388,12.64871433,299.7844,63.8925,296.3955
19789,COSMOS 1998,LEO,21352.57030651,1 19789U 89009E   21352.57030651  .00000002  00000-0 -47315-4 0    11\,2 19789  82.6109 299.3299 0017380  62.3590 297.9264 12.64871422516478,82.6109,0.001738,12.64871422,299.3299,62.359,297.9264
19789,COSMOS 1998,LEO,21352.88670220,1 19789U 89009E   21352.88670220  .00000004  00000-0 -34949-4 0    18\,2 19789  82.6110 299.1279 0017374  61.6733 298.6109 12.64871453516515,82.611,0.0017374,12.64871453,299.1279,61.6733,298.6109
19789,COSMOS 1998,LEO,21353.36129582,1 19789U 89009E   21353.36129582  .00000007  00000-0 -19016-4 0    13\,2 19789  82.6110 298.8250 0017366  60.6346 299.6478 12.64871442516574,82.611,0.0017366,12.64871442,298.825,60.6346,299.6478
19789,COSMOS 1998,LEO,21353.91498822,1 19789U 89009E   21353.91498822  .00000017  00000-0  32265-4 0    11\,2 19789  82.6111 298.4715 0017349  59.4302 300.8500 12.64871499516647,82.6111,0.0017349,12.64871499,298.4715,59.4302,300.85
19789,COSMOS 1998,LEO,21354.31048290,1 19789U 89009E   21354.31048290  .00000015  00000-0  21928-4 0    18\,2 19789  82.6112 298.2191 0017337  58.5669 301.7117 12.64871453516696,82.6112,0.0017337,12.64871453,298.2191,58.5669,301.7117
19789,COSMOS 1998,LEO,21354.86417541,1 19789U 89009E   21354.86417541  .00000012  00000-0  44995-5 0    14\,2 19789  82.6113 297.8656 0017330  57.3704 302.9058 12.64871424516761,82.6113,0.001733,12.64871424,297.8656,57.3704,302.9058
19789,COSMOS 1998,LEO,21355.33876895,1 19789U 89009E   21355.33876895  .00000016  00000-0  26042-4 0    14\,2 19789  82.6113 297.5627 0017319  56.3456 303.9286 12.64871433516827,82.6113,0.0017319,12.64871433,297.5627,56.3456,303.9286
19789,COSMOS 1998,LEO,21355.57606572,1 19789U 89009E   21355.57606572  .00000019  00000-0  44923-4 0  7415\,2 19789  82.6114 297.4112 0017315  55.8352 304.4379 12.64871439517030,82.6114,0.0017315,12.64871439,297.4112,55.8352,304.4379
19789,COSMOS 1998,LEO,21355.89246144,1 19789U 89009E   21355.89246144  .00000018  00000-0  38121-4 0    16\,2 19789  82.6114 297.2093 0017313  55.1516 305.1202 12.64871431516897,82.6114,0.0017313,12.64871431,297.2093,55.1516,305.1202
19789,COSMOS 1998,LEO,21356.52525279,1 19789U 89009E   21356.52525279  .00000027  00000-0  87761-4 0    10\,2 19789  82.6115 296.8053 0017302  53.7853 306.4837 12.64871447516979,82.6115,0.0017302,12.64871447,296.8053,53.7853,306.4837
19789,COSMOS 1998,LEO,21356.92074736,1 19789U 89009E   21356.92074736  .00000026  00000-0  79789-4 0    11\,2 19789  82.6115 296.5529 0017295  52.9258 307.3413 12.64871449517024,82.6115,0.0017295,12.64871449,296.5529,52.9258,307.3413
19789,COSMOS 1998,LEO,21357.55353865,1 19789U 89009E   21357.55353865  .00000030  00000-0  10275-3 0    13\,2 19789  82.6115 296.1489 0017281  51.5654 308.6987 12.64871471517109,82.6115,0.0017281,12.64871471,296.1489,51.5654,308.6987
19789,COSMOS 1998,LEO,21357.79083542,1 19789U 89009E   21357.79083542  .00000028  00000-0  94636-4 0  7424\,2 19789  82.6115 295.9975 0017281  51.0537 309.2092 12.64871470517317,82.6115,0.0017281,12.6487147,295.9975,51.0537,309.2092
19789,COSMOS 1998,LEO,21357.86993434,1 19789U 89009E   21357.86993434  .00000025  00000-0  77064-4 0    13\,2 19789  82.6116 295.9470 0017281  50.8834 309.3792 12.64871455517147,82.6116,0.0017281,12.64871455,295.947,50.8834,309.3792
19789,COSMOS 1998,LEO,21358.34452776,1 19789U 89009E   21358.34452776  .00000033  00000-0  11934-3 0    18\,2 19789  82.6116 295.6440 0017275  49.8487 310.4116 12.64871502517209,82.6116,0.0017275,12.64871502,295.644,49.8487,310.4116
19789,COSMOS 1998,LEO,21358.89822003,1 19789U 89009E   21358.89822003  .00000034  00000-0  12564-3 0    13\,2 19789  82.6116 295.2906 0017260  48.6508 311.6066 12.64871531517273,82.6116,0.001726,12.64871531,295.2906,48.6508,311.6066
19789,COSMOS 1998,LEO,21359.53101121,1 19789U 89009E   21359.53101121  .00000033  00000-0  12178-3 0    16\,2 19789  82.6116 294.8867 0017251  47.2838 312.9704 12.64871543517350,82.6116,0.0017251,12.64871543,294.8867,47.2838,312.9704
19789,COSMOS 1998,LEO,21359.92650563,1 19789U 89009E   21359.92650563  .00000031  00000-0  11071-3 0    17\,2 19789  82.6117 294.6343 0017240  46.4220 313.8301 12.64871576517407,82.6117,0.001724,12.64871576,294.6343,46.422,313.8301
19789,COSMOS 1998,LEO,21360.32200009,1 19789U 89009E   21360.32200009  .00000031  00000-0  10646-3 0    16\,2 19789  82.6117 294.3818 0017231  45.5626 314.6874 12.64871594517450,82.6117,0.0017231,12.64871594,294.3818,45.5626,314.6874
19789,COSMOS 1998,LEO,21360.87569234,1 19789U 89009E   21360.87569234  .00000025  00000-0  74491-4 0    16\,2 19789  82.6117 294.0284 0017226  44.3849 315.8621 12.64871586517524,82.6117,0.0017226,12.64871586,294.0284,44.3849,315.8621
19789,COSMOS 1998,LEO,21361.27118678,1 19789U 89009E   21361.27118678  .00000022  00000-0  62903-4 0  7449\,2 19789  82.6117 293.7760 0017215  43.5232 316.7216 12.64871579517751,82.6117,0.0017215,12.64871579,293.776,43.5232,316.7216
19789,COSMOS 1998,LEO,21361.58758229,1 19789U 89009E   21361.58758229  .00000017  00000-0  31136-4 0    19\,2 19789  82.6117 293.5740 0017200  42.8336 317.4094 12.64871558517612,82.6117,0.00172,12.64871558,293.574,42.8336,317.4094
19789,COSMOS 1998,LEO,21361.90397779,1 19789U 89009E   21361.90397779  .00000012  00000-0  66406-5 0    18\,2 19789  82.6118 293.3721 0017192  42.1522 318.0889 12.64871569517655,82.6118,0.0017192,12.64871569,293.3721,42.1522,318.0889
19789,COSMOS 1998,LEO,21362.29947220,1 19789U 89009E   21362.29947220  .00000009  00000-0 -10362-4 0    19\,2 19789  82.6118 293.1196 0017180  41.2923 318.9465 12.64871569517706,82.6118,0.001718,12.64871569,293.1196,41.2923,318.9465
19789,COSMOS 1998,LEO,21362.85316436,1 19789U 89009E   21362.85316436  .00000004  00000-0 -38319-4 0    17\,2 19789  82.6118 292.7662 0017169  40.0942 320.1414 12.64871573517775,82.6118,0.0017169,12.64871573,292.7662,40.0942,320.1414
19789,COSMOS 1998,LEO,21363.32775761,1 19789U 89009E   21363.32775761  .00000006  00000-0 -24871-4 0    10\,2 19789  82.6118 292.4634 0017158  39.0578 321.1750 12.64871598517830,82.6118,0.0017158,12.64871598,292.4634,39.0578,321.175
19789,COSMOS 1998,LEO,21363.88144975,1 19789U 89009E   21363.88144975  .00000002  00000-0 -45803-4 0    12\,2 19789  82.6118 292.1100 0017147  37.8600 322.3695 12.64871588517903,82.6118,0.0017147,12.64871588,292.11,37.86,322.3695
19789,COSMOS 1998,LEO,21364.27694414,1 19789U 89009E   21364.27694414  .00000001  00000-0 -53014-4 0    16\,2 19789  82.6119 291.8575 0017133  36.9950 323.2320 12.64871579517959,82.6119,0.0017133,12.64871579,291.8575,36.995,323.232
19789,COSMOS 1998,LEO,21364.90973514,1 19789U 89009E   21364.90973514 -.00000004  00000-0 -81309-4 0    19\,2 19789  82.6119 291.4537 0017114  35.6194 324.6037 12.64871568518036,82.6119,0.0017114,12.64871568,291.4537,35.6194,324.6037
19789,COSMOS 1998,LEO,21365.30522953,1 19789U 89009E   21365.30522953 -.00000001  00000-0 -64436-4 0    10\,2 19789  82.6119 291.2013 0017107  34.7548 325.4659 12.64871582518088,82.6119,0.0017107,12.64871582,291.2013,34.7548,325.4659
19789,COSMOS 1998,LEO,21365.77982280,1 19789U 89009E   21365.77982280  .00000002  00000-0 -47016-4 0  7465\,2 19789  82.6119 290.8984 0017099  33.7206 326.4971 12.64871588518321,82.6119,0.0017099,12.64871588,290.8984,33.7206,326.4971
19789,COSMOS 1998,LEO,21365.85892168,1 19789U 89009E   21365.85892168  .00000002  00000-0 -44937-4 0    12\,2 19789  82.6119 290.8479 0017099  33.5487 326.6685 12.64871589518155,82.6119,0.0017099,12.64871589,290.8479,33.5487,326.6685
19789,COSMOS 1998,LEO,22001.17531720,1 19789U 89009E   22001.17531720  .00000005  00000-0 -29489-4 0    17\,2 19789  82.6119 290.6460 0017089  32.8566 327.3585 12.64871575518198,82.6119,0.0017089,12.64871575,290.646,32.8566,327.3585
19789,COSMOS 1998,LEO,22001.80810815,1 19789U 89009E   22001.80810815  .00000009  00000-0 -93707-5 0    11\,2 19789  82.6119 290.2421 0017070  31.4689 328.7422 12.64871602518277,82.6119,0.001707,12.64871602,290.2421,31.4689,328.7422
19789,COSMOS 1998,LEO,22002.83639353,1 19789U 89009E   22002.83639353  .00000016  00000-0  28555-4 0  7473\,2 19789  82.6119 289.5858 0017035  29.2421 330.9622 12.64871610518582,82.6119,0.0017035,12.6487161,289.5858,29.2421,330.9622
19789,COSMOS 1998,LEO,22003.23188793,1 19789U 89009E   22003.23188793  .00000019  00000-0  45119-4 0    16\,2 19789  82.6119 289.3334 0017018  28.3690 331.8326 12.64871589518450,82.6119,0.0017018,12.64871589,289.3334,28.369,331.8326
19789,COSMOS 1998,LEO,22003.78558001,1 19789U 89009E   22003.78558001  .00000024  00000-0  69974-4 0    10\,2 19789  82.6120 288.9800 0017002  27.1579 333.0400 12.64871607518527,82.612,0.0017002,12.64871607,288.98,27.1579,333.04
19789,COSMOS 1998,LEO,22004.26017321,1 19789U 89009E   22004.26017321  .00000026  00000-0  83888-4 0    11\,2 19789  82.6120 288.6771 0016978  26.1093 334.0852 12.64871607518580,82.612,0.0016978,12.64871607,288.6771,26.1093,334.0852
19789,COSMOS 1998,LEO,22004.89296416,1 19789U 89009E   22004.89296416  .00000026  00000-0  82994-4 0    11\,2 19789  82.6120 288.2732 0016961  24.7237 335.4665 12.64871609518667,82.612,0.0016961,12.64871609,288.2732,24.7237,335.4665
